start=new Date('2022-03-10T00:00:00.000Z').valueOf();
sats=[{"TLE_LINE2":"2 45059  53.0568   5.9887 0001545  66.9799 293.1353 15.06404263116230","MEAN_MOTION":"15.06404263","MEAN_MOTION_DOT":"0.00000879","SITE":"AFETR","ELEMENT_SET_NO":"999","RA_OF_ASC_NODE":"5.9887","ECCENTRICITY":"0.00015450","TLE_LINE1":"1 45059U 20006R   22068.53778086  .00000879  00000-0  77912-4 0  9997","FILE":"3352425","RCS_SIZE":"LARGE","CENTER_NAME":"EARTH","GP_ID":"198321833","MEAN_ELEMENT_THEORY":"SGP4","OBJECT_ID":"2020-006R","CLASSIFICATION_TYPE":"U","NORAD_CAT_ID":"45059","ARG_OF_PERICENTER":"66.9799","MEAN_MOTION_DDOT":"0.0000000000000","TIME_SYSTEM":"UTC","EPOCH":"2022-03-09T12:54:24.266304","COUNTRY_CODE":"US","REF_FRAME":"TEME","PERIAPSIS":"546.131","BSTAR":"0.00007791200000","REV_AT_EPOCH":"11623","LAUNCH_DATE":"2020-01-29","OBJECT_TYPE":"PAYLOAD","APOAPSIS":"548.270","PERIOD":"95.592","DECAY_DATE":null,"OBJECT_NAME":"STARLINK-1165","SEMIMAJOR_AXIS":"6925.335","INCLINATION":"53.0568","EPHEMERIS_TYPE":"0","MEAN_ANOMALY":"293.1353"},{"MEAN_MOTION_DDOT":"0.0000000000000","TIME_SYSTEM":"UTC","COUNTRY_CODE":"US","EPOCH":"2022-03-09T12:49:07.084128","REF_FRAME":"TEME","PERIAPSIS":"546.121","BSTAR":"0.00010131000000","REV_AT_EPOCH":"11623","CLASSIFICATION_TYPE":"U","NORAD_CAT_ID":"45060","ARG_OF_PERICENTER":"52.1800","SEMIMAJOR_AXIS":"6925.375","INCLINATION":"53.0560","EPHEMERIS_TYPE":"0","MEAN_ANOMALY":"307.9335","LAUNCH_DATE":"2020-01-29","OBJECT_TYPE":"PAYLOAD","APOAPSIS":"548.359","DECAY_DATE":null,"OBJECT_NAME":"STARLINK-1166","PERIOD":"95.593","MEAN_MOTION_DOT":"0.00001227","SITE":"AFETR","TLE_LINE2":"2 45060  53.0560   6.0038 0001616  52.1800 307.9335 15.06391402116237","MEAN_MOTION":"15.06391402","RCS_SIZE":"LARGE","CENTER_NAME":"EARTH","GP_ID":"198322083","MEAN_ELEMENT_THEORY":"SGP4","OBJECT_ID":"2020-006S","ELEMENT_SET_NO":"999","RA_OF_ASC_NODE":"6.0038","ECCENTRICITY":"0.00016160","TLE_LINE1":"1 45060U 20006S   22068.53410977  .00001227  00000-0  10131-3 0  9998","FILE":"3352425"},{"RCS_SIZE":"LARGE","GP_ID":"198323334","CENTER_NAME":"EARTH","MEAN_ELEMENT_THEORY":"SGP4","OBJECT_ID":"2020-006T","ELEMENT_SET_NO":"999","FILE":"3352425","RA_OF_ASC_NODE":"5.9831","ECCENTRICITY":"0.00016510","TLE_LINE1":"1 45061U 20006T   22068.54146841  .00000904  00000-0  79596-4 0  9998","MEAN_MOTION_DOT":"0.00000904","SITE":"AFETR","TLE_LINE2":"2 45061  53.0544   5.9831 0001651  62.0448 298.0708 15.06389845116238","MEAN_MOTION":"15.06389845","SEMIMAJOR_AXIS":"6925.380","EPHEMERIS_TYPE":"0","INCLINATION":"53.0544","MEAN_ANOMALY":"298.0708","OBJECT_TYPE":"PAYLOAD","APOAPSIS":"548.388","LAUNCH_DATE":"2020-01-29","DECAY_DATE":null,"OBJECT_NAME":"STARLINK-1169","PERIOD":"95.593","REF_FRAME":"TEME","COUNTRY_CODE":"US","EPOCH":"2022-03-09T12:59:42.870624","MEAN_MOTION_DDOT":"0.0000000000000","TIME_SYSTEM":"UTC","BSTAR":"0.00007959600000","REV_AT_EPOCH":"11623","PERIAPSIS":"546.101","CLASSIFICATION_TYPE":"U","ARG_OF_PERICENTER":"62.0448","NORAD_CAT_ID":"45061"},{"RA_OF_ASC_NODE":"4.8379","TLE_LINE1":"1 45062U 20006U   22068.79212904  .00003688  00000-0  26653-3 0  9997","ECCENTRICITY":"0.00016040","FILE":"3352875","ELEMENT_SET_NO":"999","GP_ID":"198358156","CENTER_NAME":"EARTH","MEAN_ELEMENT_THEORY":"SGP4","OBJECT_ID":"2020-006U","RCS_SIZE":"LARGE","MEAN_MOTION":"15.06379735","TLE_LINE2":"2 45062  53.0565   4.8379 0001604  64.9327 295.1828 15.06379735116274","SITE":"AFETR","MEAN_MOTION_DOT":"0.00003688","DECAY_DATE":null,"PERIOD":"95.593","OBJECT_NAME":"STARLINK-1171","LAUNCH_DATE":"2020-01-29","APOAPSIS":"548.387","OBJECT_TYPE":"PAYLOAD","EPHEMERIS_TYPE":"0","INCLINATION":"53.0565","MEAN_ANOMALY":"295.1828","SEMIMAJOR_AXIS":"6925.411","NORAD_CAT_ID":"45062","ARG_OF_PERICENTER":"64.9327","CLASSIFICATION_TYPE":"U","PERIAPSIS":"546.165","BSTAR":"0.00026653000000","REV_AT_EPOCH":"11627","MEAN_MOTION_DDOT":"0.0000000000000","TIME_SYSTEM":"UTC","COUNTRY_CODE":"US","REF_FRAME":"TEME","EPOCH":"2022-03-09T19:00:39.949056"},{"TLE_LINE2":"2 45064  53.0564 344.1865 0001532  67.1060 293.0091 15.06382811116575","MEAN_MOTION":"15.06382811","MEAN_MOTION_DOT":"0.00010309","SITE":"AFETR","ELEMENT_SET_NO":"999","TLE_LINE1":"1 45064U 20006W   22068.93774939  .00010309  00000-0  71028-3 0  9990","ECCENTRICITY":"0.00015320","RA_OF_ASC_NODE":"344.1865","FILE":"3352875","RCS_SIZE":"LARGE","OBJECT_ID":"2020-006W","MEAN_ELEMENT_THEORY":"SGP4","GP_ID":"198358407","CENTER_NAME":"EARTH","CLASSIFICATION_TYPE":"U","NORAD_CAT_ID":"45064","ARG_OF_PERICENTER":"67.1060","TIME_SYSTEM":"UTC","MEAN_MOTION_DDOT":"0.0000000000000","REF_FRAME":"TEME","COUNTRY_CODE":"US","EPOCH":"2022-03-09T22:30:21.547296","PERIAPSIS":"546.205","REV_AT_EPOCH":"11657","BSTAR":"0.00071028000000","LAUNCH_DATE":"2020-01-29","OBJECT_TYPE":"PAYLOAD","APOAPSIS":"548.327","DECAY_DATE":null,"OBJECT_NAME":"STARLINK-1133","PERIOD":"95.593","SEMIMAJOR_AXIS":"6925.401","MEAN_ANOMALY":"293.0091","EPHEMERIS_TYPE":"0","INCLINATION":"53.0564"},{"PERIOD":"95.593","DECAY_DATE":null,"OBJECT_NAME":"STARLINK-1139","LAUNCH_DATE":"2020-01-29","APOAPSIS":"548.330","OBJECT_TYPE":"PAYLOAD","EPHEMERIS_TYPE":"0","INCLINATION":"53.0556","MEAN_ANOMALY":"292.5789","SEMIMAJOR_AXIS":"6925.372","NORAD_CAT_ID":"45065","ARG_OF_PERICENTER":"67.5367","CLASSIFICATION_TYPE":"U","PERIAPSIS":"546.143","BSTAR":"0.00026987000000","REV_AT_EPOCH":"11657","MEAN_MOTION_DDOT":"0.0000000000000","TIME_SYSTEM":"UTC","COUNTRY_CODE":"US","EPOCH":"2022-03-09T22:35:36.679200","REF_FRAME":"TEME","RA_OF_ASC_NODE":"344.1809","TLE_LINE1":"1 45065U 20006X   22068.94139675  .00003740  00000-0  26987-3 0  9999","ECCENTRICITY":"0.00015790","FILE":"3352875","ELEMENT_SET_NO":"999","MEAN_ELEMENT_THEORY":"SGP4","GP_ID":"198357155","CENTER_NAME":"EARTH","OBJECT_ID":"2020-006X","RCS_SIZE":"LARGE","MEAN_MOTION":"15.06392406","TLE_LINE2":"2 45065  53.0556 344.1809 0001579  67.5367 292.5789 15.06392406116579","SITE":"AFETR","MEAN_MOTION_DOT":"0.00003740"},{"ELEMENT_SET_NO":"999","FILE":"3352875","ECCENTRICITY":"0.00009650","TLE_LINE1":"1 45066U 20006Y   22068.91564304  .00027375  00000-0  18525-2 0  9996","RA_OF_ASC_NODE":"344.3015","RCS_SIZE":"LARGE","OBJECT_ID":"2020-006Y","MEAN_ELEMENT_THEORY":"SGP4","GP_ID":"198357405","CENTER_NAME":"EARTH","TLE_LINE2":"2 45066  53.0539 344.3015 0000965  65.9132 294.1957 15.06341508116563","MEAN_MOTION":"15.06341508","MEAN_MOTION_DOT":"0.00027375","SITE":"AFETR","OBJECT_TYPE":"PAYLOAD","APOAPSIS":"548.061","LAUNCH_DATE":"2020-01-29","DECAY_DATE":null,"PERIOD":"95.596","OBJECT_NAME":"STARLINK-1145","SEMIMAJOR_AXIS":"6925.528","MEAN_ANOMALY":"294.1957","EPHEMERIS_TYPE":"0","INCLINATION":"53.0539","CLASSIFICATION_TYPE":"U","ARG_OF_PERICENTER":"65.9132","NORAD_CAT_ID":"45066","REF_FRAME":"TEME","COUNTRY_CODE":"US","EPOCH":"2022-03-09T21:58:31.558656","TIME_SYSTEM":"UTC","MEAN_MOTION_DDOT":"0.0000000000000","REV_AT_EPOCH":"11656","BSTAR":"0.00185250000000","PERIAPSIS":"546.725"},{"LAUNCH_DATE":"2020-01-29","APOAPSIS":"548.350","OBJECT_TYPE":"PAYLOAD","DECAY_DATE":null,"OBJECT_NAME":"STARLINK-1150","PERIOD":"95.592","SEMIMAJOR_AXIS":"6925.345","MEAN_ANOMALY":"289.9933","INCLINATION":"53.0547","EPHEMERIS_TYPE":"0","CLASSIFICATION_TYPE":"U","NORAD_CAT_ID":"45067","ARG_OF_PERICENTER":"70.1233","TIME_SYSTEM":"UTC","MEAN_MOTION_DDOT":"0.0000000000000","EPOCH":"2022-03-09T22:19:42.436128","COUNTRY_CODE":"US","REF_FRAME":"TEME","PERIAPSIS":"546.070","REV_AT_EPOCH":"11657","BSTAR":"0.00010466000000","ELEMENT_SET_NO":"999","TLE_LINE1":"1 45067U 20006Z   22068.93035227  .00001278  00000-0  10466-3 0  9997","ECCENTRICITY":"0.00016460","RA_OF_ASC_NODE":"344.2105","FILE":"3352875","RCS_SIZE":"LARGE","OBJECT_ID":"2020-006Z","GP_ID":"198358657","MEAN_ELEMENT_THEORY":"SGP4","CENTER_NAME":"EARTH","TLE_LINE2":"2 45067  53.0547 344.2105 0001646  70.1233 289.9933 15.06401074116571","MEAN_MOTION":"15.06401074","MEAN_MOTION_DOT":"0.00001278","SITE":"AFETR"},{"ARG_OF_PERICENTER":"74.5745","NORAD_CAT_ID":"45068","CLASSIFICATION_TYPE":"U","REV_AT_EPOCH":"11656","BSTAR":"0.00002029300000","PERIAPSIS":"546.147","REF_FRAME":"TEME","COUNTRY_CODE":"US","EPOCH":"2022-03-09T21:41:10.841280","TIME_SYSTEM":"UTC","MEAN_MOTION_DDOT":"0.0000000000000","DECAY_DATE":null,"PERIOD":"95.593","OBJECT_NAME":"STARLINK-1161","APOAPSIS":"548.383","OBJECT_TYPE":"PAYLOAD","LAUNCH_DATE":"2020-01-29","MEAN_ANOMALY":"285.5422","INCLINATION":"53.0564","EPHEMERIS_TYPE":"0","SEMIMAJOR_AXIS":"6925.400","MEAN_MOTION":"15.06383244","TLE_LINE2":"2 45068  53.0564 344.1884 0001614  74.5745 285.5422 15.06383244116567","SITE":"AFETR","MEAN_MOTION_DOT":"0.00000021","FILE":"3352875","TLE_LINE1":"1 45068U 20006AA  22068.90359770  .00000021  00000-0  20293-4 0  9992","ECCENTRICITY":"0.00016140","RA_OF_ASC_NODE":"344.1884","ELEMENT_SET_NO":"999","OBJECT_ID":"2020-006AA","GP_ID":"198358908","MEAN_ELEMENT_THEORY":"SGP4","CENTER_NAME":"EARTH","RCS_SIZE":"LARGE"},{"ARG_OF_PERICENTER":"66.2084","NORAD_CAT_ID":"45071","CLASSIFICATION_TYPE":"U","BSTAR":"0.00000789730000","REV_AT_EPOCH":"11650","PERIAPSIS":"546.060","REF_FRAME":"TEME","COUNTRY_CODE":"US","EPOCH":"2022-03-09T11:58:41.622240","MEAN_MOTION_DDOT":"0.0000000000000","TIME_SYSTEM":"UTC","DECAY_DATE":null,"OBJECT_NAME":"STARLINK-1167","PERIOD":"95.593","APOAPSIS":"548.496","OBJECT_TYPE":"PAYLOAD","LAUNCH_DATE":"2020-01-29","EPHEMERIS_TYPE":"0","INCLINATION":"53.0566","MEAN_ANOMALY":"293.9090","SEMIMAJOR_AXIS":"6925.413","MEAN_MOTION":"15.06378959","TLE_LINE2":"2 45071  53.0566 346.1671 0001759  66.2084 293.9090 15.06378959116508","SITE":"AFETR","MEAN_MOTION_DOT":"-0.00000164","FILE":"3352425","RA_OF_ASC_NODE":"346.1671","TLE_LINE1":"1 45071U 20006AD  22068.49909285 -.00000164  00000-0  78973-5 0  9990","ECCENTRICITY":"0.00017590","ELEMENT_SET_NO":"999","GP_ID":"198322084","CENTER_NAME":"EARTH","MEAN_ELEMENT_THEORY":"SGP4","OBJECT_ID":"2020-006AD","RCS_SIZE":"LARGE"}];
